start=new Date('2022-06-16T00:00:00.000Z').valueOf();
sats=[{"PERIAPSIS":"379.547","ECCENTRICITY":"0.00011310","OBJECT_TYPE":"PAYLOAD","OBJECT_ID":"2022-045AJ","FILE":"3496999","REV_AT_EPOCH":"130","EPOCH":"2022-06-15T22:00:00.999936","PERIOD":"92.157","BSTAR":"-0.00856900000000","LAUNCH_DATE":"2022-04-29","DECAY_DATE":null,"MEAN_ELEMENT_THEORY":"SGP4","INCLINATION":"53.2175","CLASSIFICATION_TYPE":"U","RA_OF_ASC_NODE":"203.8250","CENTER_NAME":"EARTH","OBJECT_NAME":"STARLINK-3830","ARG_OF_PERICENTER":"69.6035","REF_FRAME":"TEME","TIME_SYSTEM":"UTC","TLE_LINE2":"2 52363  53.2175 203.8250 0001131  69.6035 231.8074 15.62544569  1305","EPHEMERIS_TYPE":"0","SEMIMAJOR_AXIS":"6758.447","GP_ID":"206240294","ELEMENT_SET_NO":"999","SITE":"AFETR","NORAD_CAT_ID":"52363","MEAN_ANOMALY":"231.8074","COUNTRY_CODE":"US","MEAN_MOTION_DDOT":"0.0000000000000","MEAN_MOTION_DOT":"-0.00713640","APOAPSIS":"381.076","MEAN_MOTION":"15.62544569","TLE_LINE1":"1 52363U 22045AJ  22166.91667824 -.00713640  00000-0 -85690-2 0  9995","RCS_SIZE":"LARGE"},{"MEAN_MOTION":"15.73160357","APOAPSIS":"351.821","MEAN_MOTION_DOT":"0.00066368","MEAN_MOTION_DDOT":"0.0000000000000","MEAN_ANOMALY":"67.8251","COUNTRY_CODE":"US","RCS_SIZE":"LARGE","TLE_LINE1":"1 52364U 22045AK  22166.91667824  .00066368  00000-0  47430-3 0  9993","ELEMENT_SET_NO":"999","GP_ID":"206240088","NORAD_CAT_ID":"52364","SITE":"AFETR","TLE_LINE2":"2 52364  53.2139 203.4960 0002895  11.3399  67.8251 15.73160357  1300","TIME_SYSTEM":"UTC","SEMIMAJOR_AXIS":"6728.008","EPHEMERIS_TYPE":"0","RA_OF_ASC_NODE":"203.4960","CLASSIFICATION_TYPE":"U","REF_FRAME":"TEME","ARG_OF_PERICENTER":"11.3399","OBJECT_NAME":"STARLINK-3820","CENTER_NAME":"EARTH","DECAY_DATE":null,"LAUNCH_DATE":"2022-04-29","BSTAR":"0.00047430000000","INCLINATION":"53.2139","MEAN_ELEMENT_THEORY":"SGP4","EPOCH":"2022-06-15T22:00:00.999936","REV_AT_EPOCH":"130","FILE":"3496999","OBJECT_ID":"2022-045AK","ECCENTRICITY":"0.00028950","OBJECT_TYPE":"PAYLOAD","PERIOD":"91.535","PERIAPSIS":"347.925"},{"ARG_OF_PERICENTER":"8.8045","REF_FRAME":"TEME","CENTER_NAME":"EARTH","OBJECT_NAME":"STARLINK-3874","RA_OF_ASC_NODE":"203.5015","CLASSIFICATION_TYPE":"U","INCLINATION":"53.2139","MEAN_ELEMENT_THEORY":"SGP4","DECAY_DATE":null,"BSTAR":"-0.00007193400000","LAUNCH_DATE":"2022-04-29","PERIOD":"91.531","OBJECT_ID":"2022-045AL","FILE":"3496999","EPOCH":"2022-06-15T22:00:00.999936","REV_AT_EPOCH":"130","ECCENTRICITY":"0.00028420","OBJECT_TYPE":"PAYLOAD","PERIAPSIS":"347.762","RCS_SIZE":"LARGE","TLE_LINE1":"1 52365U 22045AL  22166.91667824 -.00010721  00000-0 -71934-4 0  9995","APOAPSIS":"351.586","MEAN_MOTION_DOT":"-0.00010721","MEAN_MOTION":"15.73230235","MEAN_ANOMALY":"67.9632","COUNTRY_CODE":"US","MEAN_MOTION_DDOT":"0.0000000000000","SITE":"AFETR","NORAD_CAT_ID":"52365","ELEMENT_SET_NO":"999","GP_ID":"206240810","SEMIMAJOR_AXIS":"6727.809","EPHEMERIS_TYPE":"0","TLE_LINE2":"2 52365  53.2139 203.5015 0002842   8.8045  67.9632 15.73230235  1301","TIME_SYSTEM":"UTC"},{"PERIOD":"91.532","ECCENTRICITY":"0.00029390","OBJECT_TYPE":"PAYLOAD","FILE":"3496999","OBJECT_ID":"2022-045AM","EPOCH":"2022-06-15T22:00:00.999936","REV_AT_EPOCH":"130","PERIAPSIS":"347.739","CENTER_NAME":"EARTH","OBJECT_NAME":"STARLINK-3808","ARG_OF_PERICENTER":"12.1173","REF_FRAME":"TEME","CLASSIFICATION_TYPE":"U","RA_OF_ASC_NODE":"203.4929","MEAN_ELEMENT_THEORY":"SGP4","INCLINATION":"53.2138","BSTAR":"0.00006117700000","LAUNCH_DATE":"2022-04-29","DECAY_DATE":null,"NORAD_CAT_ID":"52366","SITE":"AFETR","GP_ID":"206240537","ELEMENT_SET_NO":"999","EPHEMERIS_TYPE":"0","SEMIMAJOR_AXIS":"6727.851","TIME_SYSTEM":"UTC","TLE_LINE2":"2 52366  53.2138 203.4929 0002939  12.1173  68.3234 15.73215376  1303","TLE_LINE1":"1 52366U 22045AM  22166.91667824  .00007978  00000-0  61177-4 0  9992","RCS_SIZE":"LARGE","COUNTRY_CODE":"US","MEAN_ANOMALY":"68.3234","MEAN_MOTION_DDOT":"0.0000000000000","MEAN_MOTION_DOT":"0.00007978","APOAPSIS":"351.694","MEAN_MOTION":"15.73215376"},{"MEAN_MOTION_DDOT":"0.0000000000000","MEAN_ANOMALY":"65.6063","COUNTRY_CODE":"US","MEAN_MOTION":"15.73168840","MEAN_MOTION_DOT":"0.00090654","APOAPSIS":"351.772","TLE_LINE1":"1 52367U 22045AN  22166.91667824  .00090654  00000-0  64416-3 0  9994","RCS_SIZE":"LARGE","GP_ID":"206240640","ELEMENT_SET_NO":"999","NORAD_CAT_ID":"52367","SITE":"AFETR","TIME_SYSTEM":"UTC","TLE_LINE2":"2 52367  53.2138 203.4975 0002858  12.9814  65.6063 15.73168840  1308","EPHEMERIS_TYPE":"0","SEMIMAJOR_AXIS":"6727.984","CLASSIFICATION_TYPE":"U","RA_OF_ASC_NODE":"203.4975","OBJECT_NAME":"STARLINK-3817","CENTER_NAME":"EARTH","REF_FRAME":"TEME","ARG_OF_PERICENTER":"12.9814","LAUNCH_DATE":"2022-04-29","BSTAR":"0.00064416000000","DECAY_DATE":null,"MEAN_ELEMENT_THEORY":"SGP4","INCLINATION":"53.2138","OBJECT_TYPE":"PAYLOAD","ECCENTRICITY":"0.00028580","EPOCH":"2022-06-15T22:00:00.999936","REV_AT_EPOCH":"130","FILE":"3496999","OBJECT_ID":"2022-045AN","PERIOD":"91.535","PERIAPSIS":"347.926"},{"ELEMENT_SET_NO":"999","GP_ID":"206240434","SITE":"AFETR","NORAD_CAT_ID":"52368","TLE_LINE2":"2 52368  53.2137 203.4895 0002722  13.2069  68.9788 15.73174504  1309","TIME_SYSTEM":"UTC","SEMIMAJOR_AXIS":"6727.968","EPHEMERIS_TYPE":"0","APOAPSIS":"351.664","MEAN_MOTION_DOT":"0.00076928","MEAN_MOTION":"15.73174504","MEAN_ANOMALY":"68.9788","COUNTRY_CODE":"US","MEAN_MOTION_DDOT":"0.0000000000000","RCS_SIZE":"LARGE","TLE_LINE1":"1 52368U 22045AP  22166.91667824  .00076928  00000-0  54806-3 0  9995","FILE":"3496999","OBJECT_ID":"2022-045AP","EPOCH":"2022-06-15T22:00:00.999936","REV_AT_EPOCH":"130","OBJECT_TYPE":"PAYLOAD","ECCENTRICITY":"0.00027220","PERIOD":"91.535","PERIAPSIS":"348.002","RA_OF_ASC_NODE":"203.4895","CLASSIFICATION_TYPE":"U","ARG_OF_PERICENTER":"13.2069","REF_FRAME":"TEME","CENTER_NAME":"EARTH","OBJECT_NAME":"STARLINK-3834","DECAY_DATE":null,"LAUNCH_DATE":"2022-04-29","BSTAR":"0.00054806000000","INCLINATION":"53.2137","MEAN_ELEMENT_THEORY":"SGP4"},{"MEAN_MOTION":"15.73204048","MEAN_MOTION_DOT":"0.00045274","APOAPSIS":"351.688","MEAN_MOTION_DDOT":"0.0000000000000","MEAN_ANOMALY":"63.7134","COUNTRY_CODE":"US","RCS_SIZE":"LARGE","TLE_LINE1":"1 52369U 22045AQ  22166.91667824  .00045274  00000-0  32516-3 0  9990","ELEMENT_SET_NO":"999","GP_ID":"206240745","SITE":"AFETR","NORAD_CAT_ID":"52369","TLE_LINE2":"2 52369  53.2137 203.4951 0002883  16.0292  63.7134 15.73204048  1305","TIME_SYSTEM":"UTC","SEMIMAJOR_AXIS":"6727.884","EPHEMERIS_TYPE":"0","RA_OF_ASC_NODE":"203.4951","CLASSIFICATION_TYPE":"U","REF_FRAME":"TEME","ARG_OF_PERICENTER":"16.0292","OBJECT_NAME":"STARLINK-3841","CENTER_NAME":"EARTH","DECAY_DATE":null,"LAUNCH_DATE":"2022-04-29","BSTAR":"0.00032516000000","INCLINATION":"53.2137","MEAN_ELEMENT_THEORY":"SGP4","REV_AT_EPOCH":"130","EPOCH":"2022-06-15T22:00:00.999936","OBJECT_ID":"2022-045AQ","FILE":"3496999","OBJECT_TYPE":"PAYLOAD","ECCENTRICITY":"0.00028830","PERIOD":"91.533","PERIAPSIS":"347.809"},{"PERIAPSIS":"347.725","OBJECT_TYPE":"PAYLOAD","ECCENTRICITY":"0.00030810","FILE":"3496999","OBJECT_ID":"2022-045AR","EPOCH":"2022-06-15T22:00:00.999936","REV_AT_EPOCH":"130","PERIOD":"91.534","BSTAR":"0.00065683000000","LAUNCH_DATE":"2022-04-29","DECAY_DATE":null,"MEAN_ELEMENT_THEORY":"SGP4","INCLINATION":"53.2136","CLASSIFICATION_TYPE":"U","RA_OF_ASC_NODE":"203.4917","CENTER_NAME":"EARTH","OBJECT_NAME":"STARLINK-3827","ARG_OF_PERICENTER":"19.7952","REF_FRAME":"TEME","TIME_SYSTEM":"UTC","TLE_LINE2":"2 52370  53.2136 203.4917 0003081  19.7952  61.0518 15.73186691  1302","EPHEMERIS_TYPE":"0","SEMIMAJOR_AXIS":"6727.933","GP_ID":"206240191","ELEMENT_SET_NO":"999","NORAD_CAT_ID":"52370","SITE":"AFETR","COUNTRY_CODE":"US","MEAN_ANOMALY":"61.0518","MEAN_MOTION_DDOT":"0.0000000000000","MEAN_MOTION_DOT":"0.00092544","APOAPSIS":"351.871","MEAN_MOTION":"15.73186691","TLE_LINE1":"1 52370U 22045AR  22166.91667824  .00092544  00000-0  65683-3 0  9995","RCS_SIZE":"LARGE"},{"TIME_SYSTEM":"UTC","TLE_LINE2":"2 52371  53.2138 203.4909 0003000  14.6670  66.9066 15.73177923  1308","EPHEMERIS_TYPE":"0","SEMIMAJOR_AXIS":"6727.958","GP_ID":"206240295","ELEMENT_SET_NO":"999","NORAD_CAT_ID":"52371","SITE":"AFETR","MEAN_ANOMALY":"66.9066","COUNTRY_CODE":"US","MEAN_MOTION_DDOT":"0.0000000000000","APOAPSIS":"351.842","MEAN_MOTION_DOT":"0.00073464","MEAN_MOTION":"15.73177923","TLE_LINE1":"1 52371U 22045AS  22166.91667824  .00073464  00000-0  52370-3 0  9995","RCS_SIZE":"LARGE","PERIAPSIS":"347.805","ECCENTRICITY":"0.00030000","OBJECT_TYPE":"PAYLOAD","FILE":"3496999","OBJECT_ID":"2022-045AS","REV_AT_EPOCH":"130","EPOCH":"2022-06-15T22:00:00.999936","PERIOD":"91.534","LAUNCH_DATE":"2022-04-29","BSTAR":"0.00052370000000","DECAY_DATE":null,"MEAN_ELEMENT_THEORY":"SGP4","INCLINATION":"53.2138","CLASSIFICATION_TYPE":"U","RA_OF_ASC_NODE":"203.4909","CENTER_NAME":"EARTH","OBJECT_NAME":"STARLINK-3798","ARG_OF_PERICENTER":"14.6670","REF_FRAME":"TEME"},{"COUNTRY_CODE":"US","MEAN_ANOMALY":"71.1628","MEAN_MOTION_DDOT":"0.0000000000000","MEAN_MOTION_DOT":"0.00014129","APOAPSIS":"351.747","MEAN_MOTION":"15.73225064","TLE_LINE1":"1 52372U 22045AT  22166.91667824  .00014129  00000-0  10480-3 0  9995","RCS_SIZE":"LARGE","TIME_SYSTEM":"UTC","TLE_LINE2":"2 52372  53.2135 203.4876 0003060  12.1617  71.1628 15.73225064  1301","EPHEMERIS_TYPE":"0","SEMIMAJOR_AXIS":"6727.824","GP_ID":"206240089","ELEMENT_SET_NO":"999","SITE":"AFETR","NORAD_CAT_ID":"52372","BSTAR":"0.00010480000000","LAUNCH_DATE":"2022-04-29","DECAY_DATE":null,"MEAN_ELEMENT_THEORY":"SGP4","INCLINATION":"53.2135","CLASSIFICATION_TYPE":"U","RA_OF_ASC_NODE":"203.4876","CENTER_NAME":"EARTH","OBJECT_NAME":"STARLINK-3796","ARG_OF_PERICENTER":"12.1617","REF_FRAME":"TEME","PERIAPSIS":"347.630","OBJECT_TYPE":"PAYLOAD","ECCENTRICITY":"0.00030600","OBJECT_ID":"2022-045AT","FILE":"3496999","EPOCH":"2022-06-15T22:00:00.999936","REV_AT_EPOCH":"130","PERIOD":"91.532"}];
